
HAWK-5A
1 52757U 22057AB  26170.17222973  .00016373  00000+0  27894-3 0  9993
2 52757  97.6613 329.1476 0005456  73.1418 287.0431 15.51450863226650

HAWK-6A
1 55327U 23011D   26169.75630368  .00003921  00000+0  17164-3 0  9997
2 55327  40.4999 341.3824 0002681 355.8331   4.2456 15.22943830188093

HAWK-6B
1 55324U 23011A   26169.75691109  .00003855  00000+0  16889-3 0  9993
2 55324  40.4999 342.9161 0002093  11.2202 348.8654 15.22945454188088

HAWK-6C
1 55326U 23011C   26170.14970504  .00003719  00000+0  16324-3 0  9992
2 55326  40.4990 337.4637 0002924   2.9405 357.1421 15.22945183188155

HAWK-7A
1 56191U 23054P   26170.20683010  .00004525  00000+0  17147-3 0  9990
2 56191  97.2695  57.4925 0004188  52.6948 307.4673 15.27378147177335

HAWK-7B
1 56193U 23054R   26170.20674885  .00004640  00000+0  17579-3 0  9999
2 56193  97.2720  55.7571 0003635  65.1754 294.9863 15.27376474177336

HAWK-7C
1 56200U 23054Y   26170.20663576  .00004505  00000+0  17073-3 0  9992
2 56200  97.2698  56.5252 0003565  56.4081 303.7498 15.27377630177330
