OBJECT_NAME,OBJECT_ID,EPOCH,MEAN_MOTION,ECCENTRICITY,INCLINATION,RA_OF_ASC_NODE,ARG_OF_PERICENTER,MEAN_ANOMALY,EPHEMERIS_TYPE,CLASSIFICATION_TYPE,NORAD_CAT_ID,ELEMENT_SET_NO,REV_AT_EPOCH,BSTAR,MEAN_MOTION_DOT,MEAN_MOTION_DDOT
HAWK-5A,2022-057AB,2026-06-19T04:08:00.648672,15.51450863,.0005456,97.6613,329.1476,73.1418,287.0431,0,U,52757,999,22665,.27894207E-3,.16373E-3,0
HAWK-6B,2023-011A,2026-06-18T18:09:57.118176,15.22945454,.00020932,40.4999,342.9161,11.2202,348.8654,0,U,55324,999,18808,.16888647E-3,.3855E-4,0
HAWK-6C,2023-011C,2026-06-19T03:35:34.515456,15.22945183,.00029249,40.4990,337.4637,2.9405,357.1421,0,U,55326,999,18815,.16323869E-3,.3719E-4,0
HAWK-6A,2023-011D,2026-06-18T18:09:04.637952,15.22943830,.00026815,40.4999,341.3824,355.8331,4.2456,0,U,55327,999,18809,.17164072E-3,.3921E-4,0
HAWK-7A,2023-054P,2026-06-19T04:57:50.120640,15.27378147,.00041884,97.2695,57.4925,52.6948,307.4673,0,U,56191,999,17733,.1714696E-3,.4525E-4,0
HAWK-7B,2023-054R,2026-06-19T04:57:43.100640,15.27376474,.00036357,97.2720,55.7571,65.1754,294.9863,0,U,56193,999,17733,.17578586E-3,.464E-4,0
HAWK-7C,2023-054Y,2026-06-19T04:57:33.329664,15.27377630,.00035659,97.2698,56.5252,56.4081,303.7498,0,U,56200,999,17733,.17073261E-3,.4505E-4,0
